MAKERSAT 0              
1 43016U 17073D   26068.63673096  .00023659  00000+0  71590-3 0  9993
2 43016  97.4777 310.6155 0115258 266.0743  92.7313 15.27797199451246
STARLINK-4166           
1 53291U 22086BB  26068.52882057 -.00000249  00000+0  24432-5 0  9992
2 53291  53.2178 179.6310 0001235  84.9193 275.1940 15.08836395201234
